{"fetched_at":"2026-03-29T16:36:15Z","count":15609,"tles":[{"name":"STARLINK-32609","line1":"1 61929U 24207T   26087.58911755  .00033704  00000+0  12279-2 0  9995","line2":"2 61929  42.9988 174.9052 0001408 270.7278  89.3412 15.27600422 77610","category":"Starlink"}]}